[{"OBJECT_NAME":"STARLINK-4586","OBJECT_ID":"2022-104BA","EPOCH":"2026-03-09T15:54:17.687808","MEAN_MOTION":15.08888095,"ECCENTRICITY":8.79e-5,"INCLINATION":53.2164,"RA_OF_ASC_NODE":224.0637,"ARG_OF_PERICENTER":62.9427,"MEAN_ANOMALY":297.1655,"EPHEMERIS_TYPE":0,"CLASSIFICATION_TYPE":"U","NORAD_CAT_ID":53636,"ELEMENT_SET_NO":999,"REV_AT_EPOCH":19622,"BSTAR":0.0014846643,"MEAN_MOTION_DOT":0.00023451,"MEAN_MOTION_DDOT":0},{"OBJECT_NAME":"THORAD AGENA D DEB","OBJECT_ID":"1969-082Z","EPOCH":"2026-03-09T07:18:45.871776","MEAN_MOTION":15.11837328,"ECCENTRICITY":0.00204275,"INCLINATION":70.0067,"RA_OF_ASC_NODE":36.7332,"ARG_OF_PERICENTER":221.6463,"MEAN_ANOMALY":138.3149,"EPHEMERIS_TYPE":0,"CLASSIFICATION_TYPE":"U","NORAD_CAT_ID":4157,"ELEMENT_SET_NO":999,"REV_AT_EPOCH":97934,"BSTAR":0.0014373482,"MEAN_MOTION_DOT":0.00024719,"MEAN_MOTION_DDOT":0}]
